BEESAT-4                
1 41619U 16040W   23012.13561186  .00041853  00000+0  10769-2 0  9996
2 41619  97.1877  62.7927 0009056  86.4815 273.7466 15.39088718352721
CAS-2T & KS-1Q          
1 41847U 16066G   23012.59854763  .00001343  00000+0  21171-3 0  9993
2 41847  98.5262  81.8122 0361230 304.0452  52.6922 14.39016930324420
NAYIF-1 (EO-88)         
1 42017U 17008BX  23012.92352069  .00053507  00000+0  11478-2 0  9996
2 42017  97.2416  81.8577 0003063 198.8179 161.2957 15.44550054329284
ZHUHAI-1 02 (CAS-4B)    
1 42759U 17034B   23012.94050587  .00007796  00000+0  43403-3 0  9993
2 42759  43.0172 256.5303 0009721 185.0450 189.3509 15.13944046308083
ZHUHAI-1 01 (CAS-4A)    
1 42761U 17034D   23012.96401633  .00007994  00000+0  44352-3 0  9994
2 42761  43.0173 255.0298 0010120 186.3282 188.4440 15.14037958308097
MAX VALIER SAT          
1 42778U 17036P   23012.83437890  .00022036  00000+0  72508-3 0  9992
2 42778  97.1799  51.9579 0008258 306.7089  53.3393 15.31490433308891
RADFXSAT (FOX-1B)       
1 43017U 17073E   23012.24365985  .00008831  00000+0  64699-3 0  9999
2 43017  97.6511 262.8241 0241068 222.8340 135.3874 14.83342226278040
FOX-1D (AO-92)          
1 43137U 18004AC  23012.48751751  .00026805  00000+0  79356-3 0  9990
2 43137  97.3482  91.1892 0006724 350.8290   9.2829 15.34836535278335
DIWATA-2B               
1 43678U 18084H   23012.77598227  .00001659  00000+0  16674-3 0  9991
2 43678  97.9966 153.9418 0008964 322.2980  37.7597 14.92637939229071
ES'HAIL 2               
1 43700U 18090A   23011.84682296  .00000161  00000+0  00000+0 0  9990
2 43700   0.0159  36.8606 0001974 304.7266 100.1804  1.00272171 15112
FOX-1CLIFF (AO-95)      
1 43770U 18099N   23012.40908974  .00005843  00000+0  50265-3 0  9997
2 43770  97.5973  78.1877 0012285 298.9468  61.0522 14.97703191224270
ITASAT 1                
1 43786U 18099AE  23011.65708689  .00005341  00000+0  46038-3 0  9997
2 43786  97.5985  78.4709 0012735 291.3555  68.6308 14.97661586224200
JY1SAT (JO-97)          
1 43803U 18099AX  23012.12355037  .00007048  00000+0  59359-3 0  9991
2 43803  97.5946  78.7726 0012322 287.4115  72.5760 14.98454932224302
UWE-4                   
1 43880U 18111E   23012.70093041  .00007251  00000+0  59137-3 0  9999
2 43880  97.6613 280.3711 0012178 352.4369   7.6668 14.99696489219044
NEXUS (FO-99)           
1 43937U 19003F   23012.82982946  .00031378  00000+0  84882-3 0  9999
2 43937  97.1091  43.5836 0019084 119.0109 241.3052 15.37458758222069
PSAT2 (NO-104)          
1 44354U 19036R   23012.66575152  .00290252  20261-4  87374-3 0  9991
2 44354  28.5162 134.3352 0097923 223.4164 135.8701 15.83197216197273
JAISAT-1                
1 44419U 19038F   23012.89768027  .00020567  00000+0  90486-3 0  9997
2 44419  97.6617 350.5881 0019291 122.5441 237.7661 15.21730160194856
DUCHIFAT-3              
1 44854U 19089C   23013.01851407  .00008244  00000+0  60630-3 0  9992
2 44854  36.9652 296.4544 0005420 130.2352 338.2661 15.02982487169459
CAS-6 (TIANQIN 1)       
1 44881U 19093C   23012.97089036  .00001191  00000+0  15640-3 0  9997
2 44881  97.8770  94.0216 0013848 220.3025 139.7155 14.82030835165800
RS-44 & BREEZE-KM R/B   
1 44909U 19096E   23011.62434619  .00000035  00000+0  97046-4 0  9990
2 44909  82.5210  91.9843 0217415 192.7393 166.8163 12.79717674142137
ORBITAL FACTORY 2 (OF-2)
1 45113U 19071C   23012.51472502  .00123567  00000+0  12278-2 0  9991
2 45113  51.6318  99.7439 0006341 252.5018 107.5284 15.64824686165850
HUSKYSAT-1 (HO-107)     
1 45119U 19071J   23011.95385908  .00095187  00000+0  11324-2 0  9994
2 45119  51.6329 105.7166 0006672 236.3931 123.6426 15.60322937165714
BY70-2                  
1 45857U 20042B   23012.97416767  .00015125  00000+0  18495-2 0  9994
2 45857  97.9415  93.0902 0010493 151.7138 208.4769 14.83296155136473
SALSAT                  
1 46495U 20068K   23011.79786889  .00006352  00000+0  44255-3 0  9991
2 46495  97.7536 318.5534 0014823 293.5622  66.4047 15.05707288125528
BY70-3                  
1 46839U 20079N   23012.91968946  .00083630  00000+0  11339-2 0  9996
2 46839  97.1740  88.7255 0003479 299.4356 170.9170 15.57378885122643
RADFXSAT-2 (AO-109)     
1 47311U 21002C   23012.32184025  .00023954  00000+0  80971-3 0  9994
2 47311  60.6840 293.6819 0038710  97.1529 263.3965 15.29905253110379
UVSQ-SAT                
1 47438U 21006AB  23012.05113651  .00015129  00000+0  72918-3 0  9992
2 47438  97.4098  71.8234 0009674 270.3434  89.6692 15.18774205108907
DIY-1 (ARDUIQUBE)       
1 47963U 21022AH  23012.66644284  .00052729  00000+0  22000-2 0  9994
2 47963  97.5160 277.5497 0015644 121.1290 239.1484 15.23371467 98676
XW-3 (CAS-9)            
1 50466U 21131B   23013.01858403  .00000625  00000+0  21843-3 0  9990
2 50466  98.5652  95.0125 0003850 234.2203 125.8627 14.38621284 55046
TEVEL-3                 
1 50988U 22002E   23013.00498654  .00015065  00000+0  74013-3 0  9995
2 50988  97.4566  81.6427 0010156  62.2237  15.9798 15.18105036 55168
TEVEL-8                 
1 50989U 22002F   23012.75683194  .00015056  00000+0  74106-3 0  9995
2 50989  97.4587  81.4414 0010263  61.1220  33.1638 15.18040164 55126
TEVEL-5                 
1 50998U 22002Q   23013.02855418  .00015801  00000+0  76294-3 0  9994
2 50998  97.4563  81.8993 0011572  56.5376  65.1022 15.18686163 55183
TEVEL-6                 
1 50999U 22002R   23013.02735134  .00015711  00000+0  75847-3 0  9990
2 50999  97.4565  81.8956 0011646  55.7549  65.2472 15.18692787 55189
TEVEL-1                 
1 51013U 22002AF  23013.01217065  .00015173  00000+0  74607-3 0  9990
2 51013  97.4570  81.6132 0009978  62.9948  21.7024 15.18076019 55167
TEVEL-7                 
1 51062U 22002CG  23013.02141649  .00015315  00000+0  75348-3 0  9990
2 51062  97.4585  81.6810 0010226  61.2555  26.9312 15.18051821 55165
TEVEL-4                 
1 51063U 22002CH  23013.08512094  .00015267  00000+0  75154-3 0  9994
2 51063  97.4588  81.7367 0010218  60.3112   3.5338 15.18031759 55175
TEVEL-2                 
1 51069U 22002CP  23013.00733630  .00015177  00000+0  74564-3 0  9997
2 51069  97.4566  81.6239 0010091  63.1757  17.7884 15.18103471 55162
GREENCUBE               
1 53106U 22080B   22354.08419093 -.00000003  00000+0  00000+0 0  9999
2 53106  70.1702  21.9397 0008914 226.9685 182.2049  6.42557326 10248
YUZGU 9 (RS3S)          
1 53308U 98067TT  23012.47729291  .00477673  00000+0  17543-2 0  9993
2 53308  51.6312   4.8515 0005846  66.1452 294.0165 15.86485203 27388
YUZGU 7 (RS1S)          
1 53309U 98067TU  23012.99335041  .00564907  00000+0  17916-2 0  9998
2 53309  51.6291   1.5277 0006190  71.8354 288.3325 15.89248717 27420
YUZGU 11 (RS5S)         
1 53310U 98067TV  23012.97607627  .00525042  00000+0  18267-2 0  9997
2 53310  51.6322   2.1826 0005539  67.1145 293.0444 15.87480350 27442
YUZGU 12 (RS6S)         
1 53311U 98067TW  23013.00103905  .00635566  17227-3  18751-2 0  9997
2 53311  51.6268   0.8153 0006206  80.0599 280.1108 15.92006436 27482
TSIOLKOVSKY-RYAZAN 1 (*)
1 53312U 98067TX  23013.00838770  .00542317  00000+0  18093-2 0  9990
2 53312  51.6294   1.6361 0006173  69.1723 290.9943 15.88285360 27411
TSIOLKOVSKY-RYAZAN 2 (*)
1 53313U 98067TY  23013.00022738  .00545733  00000+0  17985-2 0  9994
2 53313  51.6305   1.5886 0006403  72.3615 287.8088 15.88522914 27467
YUZGU 10 (RS4S)         
1 53321U 98067TZ  23012.96033639  .00523330  00000+0  18059-2 0  9991
2 53321  51.6326   2.0748 0005846  69.5227 290.6405 15.87648958 27459
RS29S (SXC3-2110 CYCLO*)
1 53373U 22096D   23012.95893193  .00022013  00000+0  79042-3 0  9997
2 53373  97.4278 278.5483 0002460  50.1085  80.1477 15.28683013 23894
RS32S (SXC3-212 MONITO*)
1 53374U 22096E   23012.95093823  .00019667  00000+0  70844-3 0  9992
2 53374  97.4271 278.5499 0002159  41.6181  87.1698 15.28601991 23899
RS34S (SXC3-218 KUZBAS*)
1 53375U 22096F   23013.04093932  .00017642  00000+0  64665-3 0  9990
2 53375  97.4268 278.5888 0002069  40.0679  88.1399 15.28052851 23909
RS23S (SXC3-21 UTMN)    
1 53376U 22096G   23012.89199922  .00018345  00000+0  66954-3 0  9993
2 53376  97.4277 278.4546 0001856  44.5047  17.1530 15.28186759 23882
RS28S (SXC3-214 MIET-A*)
1 53377U 22096H   23012.90634606  .00017301  00000+0  63421-3 0  9996
2 53377  97.4278 278.4671 0002086  38.5855  91.2259 15.28054790 23889
RS26S (KAI-1)           
1 53378U 22096J   23012.91878218  .00014965  00000+0  55464-3 0  9998
2 53378  97.4273 278.4498 0001752  32.9482 100.6594 15.27724347 23883
RS19S (SXC3-219 ISOI)   
1 53381U 22096M   23012.84526100  .00017595  00000+0  63452-3 0  9992
2 53381  97.4276 278.5175 0002067 253.9184 171.2953 15.28589582 23881
RS21S (CUBESX-HSE-2)    
1 53383U 22096P   23012.77857322  .00017874  00000+0  64292-3 0  9992
2 53383  97.4276 278.4656 0002285 253.8548 191.6802 15.28669312 23879
RS30S (SXC3-217 SIREN)  
1 53384U 22096Q   23012.99082144  .00016634  00000+0  60349-3 0  9991
2 53384  97.4284 278.6561 0002289 252.1481 231.6229 15.28403796 23902
RS20S (GEOSCAN-EDELVEIS)
1 53385U 22096R   23012.79022212  .00022710  00000+0  79015-3 0  9992
2 53385  97.4279 278.5974 0002338 258.2742 188.6310 15.29708802 23916
RS33S (SXC3-215 VIZARD) 
1 53386U 22096S   23012.97888549  .00026408  00000+0  88872-3 0  9995
2 53386  97.4276 278.9207 0003045 252.1737 117.0785 15.30758274 23945
CAS-5A (FO-118)         
1 54684U 22167C   23013.07597943  .00010620  00000+0  66771-3 0  9996
2 54684  97.5391 152.4697 0015253 144.4729 277.4614 15.09315081  5249
CAS-10                  
1 54816U 21035C   23012.93559035  .00150118  00000+0  13972-2 0  9991
2 54816  41.4781  21.5367 0005974  32.5841 327.5410 15.66088840  3925
